0 COSMOS 2251 DEB
1 37973U 93036BPY 13281.01939582  .00000743  00000-0  29198-3 0   887
2 37973 074.0367 170.1992 0045318 247.5803 112.0521 14.30510929196885
0 COSMOS 2251 DEB
1 37973U 93036BPY 13284.02651835  .00000752  00000-0  29540-3 0   895
2 37973 074.0379 164.7311 0045170 241.6233 118.0375 14.30515824197311
0 COSMOS 2251 DEB
1 37973U 93036BPY 13286.33430262  .00000772  00000-0  30304-3 0   904
2 37973 074.0353 160.5255 0044929 237.5273 122.1568 14.30519796197641
0 COSMOS 2251 DEB
1 37973U 93036BPY 13290.32046117  .00000809  00000-0  31687-3 0   917
2 37973 074.0367 153.2767 0044436 226.6528 133.1052 14.30527032198214
0 COSMOS 2251 DEB
1 37973U 93036BPY 13292.97788086  .00000891  00000-0  34779-3 0   925
2 37973 074.0356 148.4371 0044969 223.0410 136.7240 14.30533421198599
0 COSMOS 2251 DEB
1 37973U 93036BPY 13295.00591063  .00000905  00000-0  35305-3 0   932
2 37973 074.0364 144.7502 0045028 218.4235 141.3759 14.30537469198888
